{
    "type": "FeatureCollection",
    "features": [
        {
            "type": "Feature",
            "geometry": {
                "type": "LineString",
                "coordinates": [
                    [
                        103.90551847880006,
                        1.3460973610000564
                    ],
                    [
                        104.45485981766672,
                        1.4129225156667076
                    ],
                    [
                        104.64375455775006,
                        1.4175036212500487
                    ],
                    [
                        104.88734844166673,
                        1.3318709580000434
                    ],
                    [
                        106.32611461557151,
                        0.9800590514286195
                    ],
                    [
                        106.79585664425007,
                        -0.06895142812496147
                    ],
                    [
                        108.52242486193757,
                        -1.8744792521874416
                    ],
                    [
                        109.31836776817653,
                        -2.1053244819999613
                    ],
                    [
                        109.60185766500005,
                        -2.6126102587999527
                    ],
                    [
                        109.59936396123084,
                        -3.6354443211538015
                    ],
                    [
                        112.9660477540001,
                        -5.5749595359999375
                    ],
                    [
                        115.28543528300008,
                        -6.922324491999973
                    ],
                    [
                        116.39615756100011,
                        -7.435623179999936
                    ],
                    [
                        117.10454717250008,
                        -7.763246390499944
                    ],
                    [
                        122.97563498450006,
                        -7.763822540999939
                    ],
                    [
                        125.53656637000006,
                        -7.861679349999974
                    ],
                    [
                        125.7162124250001,
                        -7.9634573439999485
                    ],
                    [
                        126.99506430150007,
                        -8.057458832999941
                    ],
                    [
                        127.35035979000008,
                        -8.132703594999953
                    ],
                    [
                        135.87039359900007,
                        -10.042532180999956
                    ],
                    [
                        141.87316043728578,
                        -10.467370183999956
                    ],
                    [
                        142.20697553880774,
                        -10.395722784576881
                    ],
                    [
                        142.4508583610001,
                        -10.35383346924997
                    ],
                    [
                        142.87314596950011,
                        -10.172902712499933
                    ],
                    [
                        142.94340167650006,
                        -10.097782965999954
                    ],
                    [
                        143.1030580475001,
                        -9.851349130749952
                    ],
                    [
                        143.19897858966672,
                        -9.675069199999959
                    ],
                    [
                        143.34880131300002,
                        -9.52570701749994
                    ],
                    [
                        143.55199190050007,
                        -9.313059899499962
                    ],
                    [
                        143.90700605350008,
                        -9.078515117999956
                    ],
                    [
                        144.02442055333339,
                        -9.06698112033329
                    ],
                    [
                        144.336084636,
                        -9.157245534999959
                    ],
                    [
                        145.00802999600012,
                        -9.187498966999954
                    ],
                    [
                        147.82421371500004,
                        -10.169734460999962
                    ],
                    [
                        150.4519652140001,
                        -10.691844979999928
                    ],
                    [
                        150.6953965153334,
                        -10.445698551999953
                    ],
                    [
                        151.45850518400005,
                        -10.022834845999967
                    ],
                    [
                        154.47032091500012,
                        -9.330144440999959
                    ],
                    [
                        154.75345875500005,
                        -8.949618393499946
                    ],
                    [
                        153.7591955343334,
                        -3.0431364747777314
                    ],
                    [
                        153.08439846000005,
                        -1.7698138129999563
                    ],
                    [
                        149.39955350500009,
                        8.676311614500065
                    ],
                    [
                        146.52724456566673,
                        17.229829258333382
                    ],
                    [
                        143.04641038550005,
                        27.106980237000045
                    ],
                    [
                        139.79759192981257,
                        35.108185139125055
                    ],
                    [
                        139.79244069027786,
                        35.374858147555614
                    ],
                    [
                        139.78522032025006,
                        35.57466779425006
                    ]
                ]
            },
            "properties": {
                "source_node_id": "1bf48412-ee58-4200-8f9a-ec2be30439dc",
                "dest_node_id": "6b5e4315-819b-4d92-8d38-c5a5ee137bcd",
                "total_distance_km": 11411.021551432379,
                "route_node_ids": [
                    "1bf48412-ee58-4200-8f9a-ec2be30439dc",
                    "36f43657-ca63-4292-b404-5164e33da3fb",
                    "e881c7b9-4c16-42b9-886e-31f8153d62a6",
                    "f2a76fcb-3eca-45bc-8d1d-8b7916245885",
                    "d248b07c-5ac7-4cd4-8bee-1035a6731c54",
                    "5c51bd59-9acc-47ea-bc88-0a65485bd5dd",
                    "9a16a0b3-81c6-446c-bcbd-f79361e6f84d",
                    "d3e98b8d-05fa-44a9-9156-361b557aacbf",
                    "b8f5c30e-bc62-4a12-8bed-36a0b4e85294",
                    "884fde6f-97fb-4ae3-89f3-3d584677cc9e",
                    "9e9bf3b8-9425-4c2f-88df-107d99048bd7",
                    "8bfbb123-8d9f-4fe9-b802-51264c9ebae5",
                    "10e048f4-7a67-46a4-a05d-0db0ac92a27b",
                    "55c3edcf-710f-41cd-9fb2-9215a768879e",
                    "09437787-782a-4142-95f9-cf5e5c12ea90",
                    "90ce5f6b-90fc-49e3-83e7-e0e2b0c24372",
                    "433f3cfa-9d1a-477e-b782-19f199423e51",
                    "3ccb7c41-e908-4e50-913a-57b4b01e6750",
                    "48be384b-be3b-4689-a8aa-23ee50d31c05",
                    "4bd41bb5-7a35-4d31-bdf0-9fe3fdfd0744",
                    "e8c17605-6473-40ea-9d31-6655d653a4ad",
                    "ffdc8160-eff0-4a66-b73b-34dd76f385f6",
                    "e0db4280-fb29-418f-97ce-f8955f5606ac",
                    "43f485bd-9850-4e4c-8885-82a6f0f239ff",
                    "97e2a73e-2aba-40c6-b778-92e33466c4ce",
                    "0f404fe8-737f-469b-9444-0760d766a6a1",
                    "7a49cd9a-a53d-47d7-8307-072fc875786d",
                    "4e20e088-8f15-495d-b0ea-44179eb0de8d",
                    "fd9dea06-3c0d-4ba0-b332-fbdbc7a7fa9d",
                    "57535cf4-8e57-4a90-85a1-07976cec0e8e",
                    "85f4c631-6cf7-46ff-8d4a-c4fc6c1ec6e0",
                    "0de8aaf6-da62-4264-968a-4961bb74a565",
                    "19164396-5efe-4526-a5b2-b48095c60466",
                    "15245584-90ef-457f-95bf-865ea838ef7c",
                    "494c7671-cacb-43e0-b5cb-2dae8e4ba3e1",
                    "4411583a-cc56-4e19-a024-4d9c1405567d",
                    "8ada8a4b-289d-4256-935d-0c187c84ca91",
                    "dd7152b0-86f6-4b43-ba26-23e6227d25bc",
                    "6acf5edf-b7b6-4b6f-baac-24ec5adbc349",
                    "598f7885-3986-40ba-ba64-4d658fbd1998",
                    "4fbf3e15-5df8-445b-bd8e-84b4ecae0f61",
                    "a777c03f-1f6c-4bb5-aac5-9862748220af",
                    "3c863d15-e566-458c-87cd-e2f1ed3bbc24",
                    "a237cab6-ad06-4721-a365-92d8ece86cc6",
                    "34910a97-908d-4d81-b284-eb3129f28397",
                    "550bcd05-70d9-470f-b8a2-7beb9c544669",
                    "6b5e4315-819b-4d92-8d38-c5a5ee137bcd"
                ]
            }
        }
    ]
}